[{"OBJECT_NAME":"COSMOS 2556","OBJECT_ID":"2022-054A","EPOCH":"2026-03-10T00:10:17.786784","MEAN_MOTION":15.25603379,"ECCENTRICITY":0.00026445,"INCLINATION":97.619,"RA_OF_ASC_NODE":16.747,"ARG_OF_PERICENTER":87.0138,"MEAN_ANOMALY":273.1402,"EPHEMERIS_TYPE":0,"CLASSIFICATION_TYPE":"U","NORAD_CAT_ID":52713,"ELEMENT_SET_NO":999,"REV_AT_EPOCH":21161,"BSTAR":0.00015936962,"MEAN_MOTION_DOT":3.973e-5,"MEAN_MOTION_DDOT":0},{"OBJECT_NAME":"STARLINK-30948","OBJECT_ID":"2023-191T","EPOCH":"2026-03-09T11:48:10.828800","MEAN_MOTION":15.26742007,"ECCENTRICITY":0.00013517,"INCLINATION":43.0032,"RA_OF_ASC_NODE":104.3273,"ARG_OF_PERICENTER":273.7226,"MEAN_ANOMALY":86.3471,"EPHEMERIS_TYPE":0,"CLASSIFICATION_TYPE":"U","NORAD_CAT_ID":58525,"ELEMENT_SET_NO":999,"REV_AT_EPOCH":12544,"BSTAR":2.0956294e-5,"MEAN_MOTION_DOT":3.02e-6,"MEAN_MOTION_DDOT":0}]
